[{"OBJECT_NAME":"COSMOS 2251 DEB","OBJECT_ID":"1993-036ACB","EPOCH":"2026-03-03T02:53:29.231808","MEAN_MOTION":14.59683033,"ECCENTRICITY":0.00633744,"INCLINATION":74.0162,"RA_OF_ASC_NODE":313.4111,"ARG_OF_PERICENTER":57.3902,"MEAN_ANOMALY":109.18,"EPHEMERIS_TYPE":0,"CLASSIFICATION_TYPE":"U","NORAD_CAT_ID":34857,"ELEMENT_SET_NO":999,"REV_AT_EPOCH":89073,"BSTAR":0.00088887884,"MEAN_MOTION_DOT":4.329e-5,"MEAN_MOTION_DDOT":0},{"OBJECT_NAME":"COSMOS 2251 DEB","OBJECT_ID":"1993-036ACD","EPOCH":"2026-03-03T16:58:25.326048","MEAN_MOTION":15.31468115,"ECCENTRICITY":0.0013554,"INCLINATION":74.0276,"RA_OF_ASC_NODE":169.5314,"ARG_OF_PERICENTER":327.1271,"MEAN_ANOMALY":32.9088,"EPHEMERIS_TYPE":0,"CLASSIFICATION_TYPE":"U","NORAD_CAT_ID":34859,"ELEMENT_SET_NO":999,"REV_AT_EPOCH":89590,"BSTAR":0.008095,"MEAN_MOTION_DOT":0.00255189,"MEAN_MOTION_DDOT":0},{"OBJECT_NAME":"COSMOS 2251 DEB","OBJECT_ID":"1993-036ACF","EPOCH":"2026-03-02T13:19:26.102208","MEAN_MOTION":15.127618,"ECCENTRICITY":0.0003266,"INCLINATION":74.0142,"RA_OF_ASC_NODE":246.5822,"ARG_OF_PERICENTER":238.6359,"MEAN_ANOMALY":177.5162,"EPHEMERIS_TYPE":0,"CLASSIFICATION_TYPE":"U","NORAD_CAT_ID":34861,"ELEMENT_SET_NO":999,"REV_AT_EPOCH":89295,"BSTAR":0.0026502,"MEAN_MOTION_DOT":0.00046761,"MEAN_MOTION_DDOT":0},{"OBJECT_NAME":"COSMOS 2251 DEB","OBJECT_ID":"1993-036ACM","EPOCH":"2026-03-02T16:00:24.746976","MEAN_MOTION":14.36821364,"ECCENTRICITY":0.00519981,"INCLINATION":74.0381,"RA_OF_ASC_NODE":286.9153,"ARG_OF_PERICENTER":292.5459,"MEAN_ANOMALY":126.2323,"EPHEMERIS_TYPE":0,"CLASSIFICATION_TYPE":"U","NORAD_CAT_ID":34874,"ELEMENT_SET_NO":999,"REV_AT_EPOCH":88192,"BSTAR":0.00075265064,"MEAN_MOTION_DOT":2.232e-5,"MEAN_MOTION_DDOT":0},{"OBJECT_NAME":"COSMOS 2251 DEB","OBJECT_ID":"1993-036ACN","EPOCH":"2026-03-03T07:05:40.022304","MEAN_MOTION":14.49251652,"ECCENTRICITY":0.00139754,"INCLINATION":74.0465,"RA_OF_ASC_NODE":7.244,"ARG_OF_PERICENTER":115.7377,"MEAN_ANOMALY":35.8384,"EPHEMERIS_TYPE":0,"CLASSIFICATION_TYPE":"U","NORAD_CAT_ID":34875,"ELEMENT_SET_NO":999,"REV_AT_EPOCH":88922,"BSTAR":0.0005507882,"MEAN_MOTION_DOT":2.076e-5,"MEAN_MOTION_DDOT":0},{"OBJECT_NAME":"COSMOS 2251 DEB","OBJECT_ID":"1993-036ACR","EPOCH":"2026-03-03T01:23:26.077344","MEAN_MOTION":13.44294557,"ECCENTRICITY":0.04354328,"INCLINATION":73.9629,"RA_OF_ASC_NODE":279.875,"ARG_OF_PERICENTER":248.0871,"MEAN_ANOMALY":185.8492,"EPHEMERIS_TYPE":0,"CLASSIFICATION_TYPE":"U","NORAD_CAT_ID":34878,"ELEMENT_SET_NO":999,"REV_AT_EPOCH":82352,"BSTAR":0.00030156795,"MEAN_MOTION_DOT":2.86e-6,"MEAN_MOTION_DDOT":0},{"OBJECT_NAME":"COSMOS 2251 DEB","OBJECT_ID":"1993-036ACV","EPOCH":"2026-03-02T10:43:54.045984","MEAN_MOTION":14.61776208,"ECCENTRICITY":0.00828502,"INCLINATION":74.044,"RA_OF_ASC_NODE":73.1665,"ARG_OF_PERICENTER":181.6409,"MEAN_ANOMALY":178.45,"EPHEMERIS_TYPE":0,"CLASSIFICATION_TYPE":"U","NORAD_CAT_ID":34882,"ELEMENT_SET_NO":999,"REV_AT_EPOCH":89689,"BSTAR":0.00016072037,"MEAN_MOTION_DOT":8.09e-6,"MEAN_MOTION_DDOT":0},{"OBJECT_NAME":"COSMOS 2251 DEB","OBJECT_ID":"1993-036ACW","EPOCH":"2026-03-03T13:10:34.159008","MEAN_MOTION":14.54024968,"ECCENTRICITY":0.0091484,"INCLINATION":74.1968,"RA_OF_ASC_NODE":271.7919,"ARG_OF_PERICENTER":71.5608,"MEAN_ANOMALY":289.5474,"EPHEMERIS_TYPE":0,"CLASSIFICATION_TYPE":"U","NORAD_CAT_ID":34883,"ELEMENT_SET_NO":999,"REV_AT_EPOCH":87613,"BSTAR":0.0044358,"MEAN_MOTION_DOT":0.00019809,"MEAN_MOTION_DDOT":0},{"OBJECT_NAME":"COSMOS 2251 DEB","OBJECT_ID":"1993-036ACX","EPOCH":"2026-03-03T15:02:15.405216","MEAN_MOTION":14.95098906,"ECCENTRICITY":0.0003307,"INCLINATION":74.0131,"RA_OF_ASC_NODE":254.0257,"ARG_OF_PERICENTER":303.4548,"MEAN_ANOMALY":119.8415,"EPHEMERIS_TYPE":0,"CLASSIFICATION_TYPE":"U","NORAD_CAT_ID":34884,"ELEMENT_SET_NO":999,"REV_AT_EPOCH":89012,"BSTAR":0.0031941,"MEAN_MOTION_DOT":0.00035167,"MEAN_MOTION_DDOT":0},{"OBJECT_NAME":"COSMOS 2251 DEB","OBJECT_ID":"1993-036ACY","EPOCH":"2026-03-03T20:19:18.077664","MEAN_MOTION":14.52053091,"ECCENTRICITY":0.0012162,"INCLINATION":74.0324,"RA_OF_ASC_NODE":30.2313,"ARG_OF_PERICENTER":101.7384,"MEAN_ANOMALY":280.3175,"EPHEMERIS_TYPE":0,"CLASSIFICATION_TYPE":"U","NORAD_CAT_ID":34885,"ELEMENT_SET_NO":999,"REV_AT_EPOCH":88656,"BSTAR":0.001028,"MEAN_MOTION_DOT":4.136e-5,"MEAN_MOTION_DDOT":0},{"OBJECT_NAME":"COSMOS 2251 DEB","OBJECT_ID":"1993-036ACZ","EPOCH":"2026-02-28T12:55:37.312320","MEAN_MOTION":15.57203569,"ECCENTRICITY":0.00257436,"INCLINATION":73.9475,"RA_OF_ASC_NODE":10.2626,"ARG_OF_PERICENTER":182.5911,"MEAN_ANOMALY":177.5177,"EPHEMERIS_TYPE":0,"CLASSIFICATION_TYPE":"U","NORAD_CAT_ID":34886,"ELEMENT_SET_NO":999,"REV_AT_EPOCH":64201,"BSTAR":0.0023826648,"MEAN_MOTION_DOT":0.00179856,"MEAN_MOTION_DDOT":0},{"OBJECT_NAME":"COSMOS 2251 DEB","OBJECT_ID":"1993-036ADD","EPOCH":"2026-02-28T17:43:53.900256","MEAN_MOTION":14.3771931,"ECCENTRICITY":0.00412409,"INCLINATION":74.0555,"RA_OF_ASC_NODE":240.2847,"ARG_OF_PERICENTER":239.9439,"MEAN_ANOMALY":136.6851,"EPHEMERIS_TYPE":0,"CLASSIFICATION_TYPE":"U","NORAD_CAT_ID":34908,"ELEMENT_SET_NO":999,"REV_AT_EPOCH":88400,"BSTAR":0.00056942096,"MEAN_MOTION_DOT":1.703e-5,"MEAN_MOTION_DDOT":0},{"OBJECT_NAME":"COSMOS 2251 DEB","OBJECT_ID":"1993-036ADE","EPOCH":"2026-03-03T13:51:25.094592","MEAN_MOTION":14.78499752,"ECCENTRICITY":0.0082355,"INCLINATION":74.0115,"RA_OF_ASC_NODE":277.5632,"ARG_OF_PERICENTER":31.3881,"MEAN_ANOMALY":329.217,"EPHEMERIS_TYPE":0,"CLASSIFICATION_TYPE":"U","NORAD_CAT_ID":34909,"ELEMENT_SET_NO":999,"REV_AT_EPOCH":68046,"BSTAR":0.00051073,"MEAN_MOTION_DOT":3.913e-5,"MEAN_MOTION_DDOT":0},{"OBJECT_NAME":"COSMOS 2251 DEB","OBJECT_ID":"1993-036ADF","EPOCH":"2026-03-03T04:44:36.787200","MEAN_MOTION":13.37820966,"ECCENTRICITY":0.04657255,"INCLINATION":73.8776,"RA_OF_ASC_NODE":334.4474,"ARG_OF_PERICENTER":79.552,"MEAN_ANOMALY":66.805,"EPHEMERIS_TYPE":0,"CLASSIFICATION_TYPE":"U","NORAD_CAT_ID":34910,"ELEMENT_SET_NO":999,"REV_AT_EPOCH":82600,"BSTAR":0.0009360749,"MEAN_MOTION_DOT":9.05e-6,"MEAN_MOTION_DDOT":0},{"OBJECT_NAME":"COSMOS 2251 DEB","OBJECT_ID":"1993-036ADG","EPOCH":"2026-03-02T09:56:57.253056","MEAN_MOTION":14.59509377,"ECCENTRICITY":0.00842633,"INCLINATION":74.0387,"RA_OF_ASC_NODE":92.8787,"ARG_OF_PERICENTER":199.8394,"MEAN_ANOMALY":223.1742,"EPHEMERIS_TYPE":0,"CLASSIFICATION_TYPE":"U","NORAD_CAT_ID":34911,"ELEMENT_SET_NO":999,"REV_AT_EPOCH":89749,"BSTAR":0.00013186856,"MEAN_MOTION_DOT":6.25e-6,"MEAN_MOTION_DDOT":0},{"OBJECT_NAME":"COSMOS 2251 DEB","OBJECT_ID":"1993-036ADJ","EPOCH":"2026-03-02T21:28:39.252864","MEAN_MOTION":14.34664831,"ECCENTRICITY":0.0022003,"INCLINATION":74.0282,"RA_OF_ASC_NODE":135.6075,"ARG_OF_PERICENTER":231.2176,"MEAN_ANOMALY":251.1868,"EPHEMERIS_TYPE":0,"CLASSIFICATION_TYPE":"U","NORAD_CAT_ID":34913,"ELEMENT_SET_NO":999,"REV_AT_EPOCH":66337,"BSTAR":5.3925e-5,"MEAN_MOTION_DOT":1.27e-6,"MEAN_MOTION_DDOT":0}]
