COSMOS 2251 DEB         
1 34857U 93036ACB 26062.12047722  .00004329  00000+0  88888-3 0  9999
2 34857  74.0162 313.4111 0063374  57.3902 109.1800 14.59683033890730
COSMOS 2251 DEB         
1 34859U 93036ACD 26062.70723757  .00255189  00000+0  80950-2 0  9997
2 34859  74.0276 169.5314 0013554 327.1271  32.9088 15.31468115895903
COSMOS 2251 DEB         
1 34861U 93036ACF 26061.55516322  .00046761  00000+0  26502-2 0  9997
2 34861  74.0142 246.5822 0003266 238.6359 177.5162 15.12761800892957
COSMOS 2251 DEB         
1 34874U 93036ACM 26061.66695309  .00002232  00000+0  75265-3 0  9992
2 34874  74.0381 286.9153 0051998 292.5459 126.2323 14.36821364881928
COSMOS 2251 DEB         
1 34875U 93036ACN 26062.29560211  .00002076  00000+0  55079-3 0  9993
2 34875  74.0465   7.2440 0013975 115.7377  35.8384 14.49251652889227
COSMOS 2251 DEB         
1 34878U 93036ACR 26062.05794071  .00000286  00000+0  30157-3 0  9994
2 34878  73.9629 279.8750 0435432 248.0871 185.8492 13.44294557823528
COSMOS 2251 DEB         
1 34882U 93036ACV 26061.44715331  .00000809  00000+0  16072-3 0  9994
2 34882  74.0440  73.1665 0082850 181.6409 178.4500 14.61776208896893
COSMOS 2251 DEB         
1 34883U 93036ACW 26062.54900647  .00019809  00000+0  44358-2 0  9990
2 34883  74.1968 271.7919 0091484  71.5608 289.5474 14.54024968876139
COSMOS 2251 DEB         
1 34884U 93036ACX 26062.62656719  .00035167  00000+0  31941-2 0  9997
2 34884  74.0131 254.0257 0003307 303.4548 119.8415 14.95098906890120
COSMOS 2251 DEB         
1 34885U 93036ACY 26062.84673701  .00004136  00000+0  10280-2 0  9997
2 34885  74.0324  30.2313 0012162 101.7384 280.3175 14.52053091886567
COSMOS 2251 DEB         
1 34886U 93036ACZ 26059.53862630  .00179856  00000+0  23827-2 0  9994
2 34886  73.9475  10.2626 0025743 182.5911 177.5177 15.57203569642012
COSMOS 2251 DEB         
1 34908U 93036ADD 26059.73881829  .00001703  00000+0  56942-3 0  9992
2 34908  74.0555 240.2847 0041240 239.9439 136.6851 14.37719310884005
COSMOS 2251 DEB         
1 34909U 93036ADE 26062.57737378  .00003913  00000+0  51073-3 0  9993
2 34909  74.0115 277.5632 0082355  31.3881 329.2170 14.78499752680468
COSMOS 2251 DEB         
1 34910U 93036ADF 26062.19764800  .00000905  00000+0  93607-3 0  9990
2 34910  73.8776 334.4474 0465725  79.5520  66.8050 13.37820966826009
COSMOS 2251 DEB         
1 34911U 93036ADG 26061.41455154  .00000625  00000+0  13187-3 0  9998
2 34911  74.0387  92.8787 0084263 199.8394 223.1742 14.59509377897494
COSMOS 2251 DEB         
1 34913U 93036ADJ 26061.89489876  .00000127  00000+0  53925-4 0  9992
2 34913  74.0282 135.6075 0022003 231.2176 251.1868 14.34664831663377
